{"type":"FeatureCollection","status":"FINAL","generated_utc":"2026-10-06T08:26:46Z","source":"Natural Earth 1:50m admin-0, public domain","features":[{"type":"Feature","properties":{"ISO_A2":"AT","NAME":"Austria"},"geometry":{"type":"Polygon","coordinates":[[[9.528,47.271],[9.609,47.392],[9.626,47.467],[9.524,47.524],[9.651,47.526],[9.749,47.576],[9.972,47.505],[10.06,47.449],[10.074,47.429],[10.066,47.393],[10.2,47.363],[10.183,47.279],[10.313,47.313],[10.369,47.366],[10.404,47.417],[10.439,47.552],[10.659,47.547],[10.742,47.524],[10.873,47.52],[10.894,47.47],[10.981,47.398],[11.042,47.393],[11.191,47.425],[11.212,47.414],[11.298,47.425],[11.374,47.46],[11.393,47.487],[11.717,47.583],[12.186,47.62],[12.204,47.647],[12.197,47.709],[12.209,47.718],[12.363,47.688],[12.483,47.637],[12.686,47.669],[12.771,47.639],[12.796,47.607],[12.783,47.564],[12.809,47.542],[12.968,47.476],[13.014,47.478],[13.048,47.579],[13.054,47.655],[13.034,47.699],[12.898,47.722],[12.954,47.808],[12.954,47.891],[12.76,48.076],[12.76,48.107],[12.814,48.161],[13.082,48.275],[13.323,48.331],[13.375,48.361],[13.409,48.394],[13.46,48.565],[13.487,48.582],[13.675,48.523],[13.724,48.542],[13.785,48.587],[13.815,48.767],[13.989,48.692],[14.049,48.602],[14.19,48.579],[14.368,48.576],[14.431,48.616],[14.489,48.626],[14.691,48.599],[14.707,48.672],[14.786,48.747],[14.822,48.774],[14.923,48.771],[14.947,48.828],[14.972,48.984],[14.993,49.001],[15.067,48.998],[15.162,48.946],[15.311,48.974],[15.701,48.86],[15.825,48.864],[16.057,48.755],[16.367,48.739],[16.478,48.8],[16.544,48.796],[16.713,48.734],[16.884,48.704],[16.953,48.599],[16.943,48.551],[16.863,48.441],[16.865,48.387],[16.973,48.198],[17.068,48.083],[17.086,48.04],[17.147,48.006],[17.089,47.964],[17.078,47.901],[17.04,47.873],[17.03,47.837],[17.067,47.708],[16.823,47.694],[16.786,47.679],[16.591,47.751],[16.551,47.747],[16.421,47.674],[16.432,47.656],[16.64,47.609],[16.677,47.536],[16.623,47.448],[16.515,47.405],[16.443,47.4],[16.434,47.367],[16.463,47.273],[16.417,47.223],[16.438,47.146],[16.483,47.14],[16.493,47.123],[16.461,47.022],[16.424,46.997],[16.332,47.002],[16.253,46.972],[16.093,46.863],[16.037,46.845],[15.977,46.801],[15.98,46.706],[15.958,46.678],[15.767,46.711],[15.633,46.698],[15.545,46.655],[15.439,46.63],[15.217,46.643],[14.893,46.606],[14.841,46.58],[14.757,46.499],[14.597,46.436],[14.55,46.4],[14.504,46.417],[14.1,46.462],[13.831,46.511],[13.49,46.556],[13.169,46.573],[12.479,46.673],[12.388,46.703],[12.154,46.935],[12.131,46.985],[12.201,47.061],[12.169,47.082],[11.776,46.986],[11.528,46.997],[11.244,46.976],[11.134,46.936],[11.025,46.797],[10.993,46.777],[10.927,46.769],[10.76,46.793],[10.689,46.846],[10.453,46.865],[10.455,46.899],[10.415,46.964],[10.349,46.985],[10.18,46.862],[10.133,46.852],[9.997,46.885],[9.878,46.938],[9.845,47.007],[9.745,47.037],[9.58,47.057],[9.611,47.107],[9.556,47.185],[9.528,47.271]]]}},{"type":"Feature","properties":{"ISO_A2":"BE","NAME":"Belgium"},"geometry":{"type":"Polygon","coordinates":[[[4.226,51.386],[4.374,51.356],[4.404,51.367],[4.385,51.428],[4.503,51.475],[4.589,51.422],[4.634,51.422],[4.756,51.491],[4.811,51.453],[4.821,51.412],[4.848,51.403],[4.944,51.408],[5.031,51.469],[5.059,51.453],[5.1,51.346],[5.214,51.279],[5.311,51.26],[5.477,51.285],[5.609,51.198],[5.752,51.169],[5.827,51.126],[5.818,51.086],[5.75,50.989],[5.75,50.95],[5.648,50.867],[5.639,50.844],[5.694,50.775],[5.747,50.76],[5.994,50.75],[6.236,50.597],[6.168,50.545],[6.179,50.523],[6.203,50.499],[6.295,50.485],[6.341,50.452],[6.364,50.316],[6.175,50.233],[6.117,50.121],[6.089,50.155],[5.976,50.167],[5.867,50.083],[5.788,49.961],[5.744,49.92],[5.725,49.808],[5.788,49.759],[5.88,49.645],[5.815,49.554],[5.79,49.538],[5.507,49.511],[5.279,49.678],[5.124,49.721],[5.007,49.778],[4.868,49.788],[4.842,49.915],[4.79,49.96],[4.861,50.136],[4.819,50.153],[4.707,50.097],[4.656,50.002],[4.545,49.96],[4.369,49.945],[4.149,49.972],[4.137,50.0],[4.184,50.053],[4.192,50.094],[4.135,50.144],[4.175,50.246],[4.044,50.321],[3.95,50.336],[3.748,50.344],[3.689,50.306],[3.667,50.325],[3.627,50.457],[3.595,50.477],[3.316,50.507],[3.273,50.532],[3.235,50.663],[3.182,50.732],[3.107,50.779],[2.84,50.712],[2.759,50.751],[2.597,50.876],[2.579,50.912],[2.601,50.955],[2.536,51.05],[2.525,51.097],[2.96,51.265],[3.35,51.378],[3.38,51.291],[3.433,51.246],[3.472,51.242],[3.58,51.286],[3.682,51.276],[3.831,51.213],[3.902,51.208],[4.04,51.247],[4.173,51.307],[4.226,51.386]]]}},{"type":"Feature","properties":{"ISO_A2":"CH","NAME":"Switzerland"},"geometry":{"type":"Polygon","coordinates":[[[9.183,47.671],[9.626,47.467],[9.609,47.392],[9.528,47.271],[9.484,47.173],[9.488,47.062],[9.62,47.057],[9.845,47.007],[9.878,46.938],[9.997,46.885],[10.133,46.852],[10.18,46.862],[10.349,46.985],[10.415,46.964],[10.455,46.899],[10.398,46.665],[10.438,46.619],[10.431,46.55],[10.272,46.565],[10.196,46.621],[10.087,46.6],[10.038,46.483],[10.046,46.448],[10.082,46.421],[10.11,46.363],[10.145,46.254],[10.128,46.238],[10.081,46.228],[10.041,46.238],[9.939,46.362],[9.884,46.368],[9.639,46.296],[9.529,46.306],[9.481,46.349],[9.428,46.482],[9.304,46.496],[9.26,46.475],[9.251,46.287],[9.203,46.219],[9.022,46.051],[9.003,46.015],[8.999,45.983],[9.047,45.876],[9.024,45.846],[8.954,45.83],[8.904,45.862],[8.885,45.919],[8.778,45.996],[8.827,46.061],[8.819,46.077],[8.642,46.111],[8.458,46.246],[8.438,46.283],[8.443,46.403],[8.423,46.446],[8.371,46.445],[8.232,46.341],[8.096,46.271],[8.082,46.256],[8.127,46.188],[8.125,46.161],[7.993,46.016],[7.788,45.922],[7.539,45.978],[7.328,45.912],[7.129,45.88],[7.056,45.904],[7.021,45.926],[6.954,46.017],[6.772,46.165],[6.817,46.275],[6.784,46.314],[6.767,46.369],[6.776,46.407],[6.758,46.416],[6.578,46.437],[6.429,46.431],[6.322,46.394],[6.235,46.333],[6.224,46.319],[6.273,46.252],[6.199,46.193],[6.087,46.147],[5.971,46.151],[5.97,46.215],[6.096,46.279],[6.123,46.379],[6.06,46.428],[6.161,46.611],[6.41,46.755],[6.439,46.926],[6.456,46.948],[6.667,47.027],[6.688,47.058],[6.952,47.267],[7.001,47.339],[6.921,47.361],[6.9,47.394],[6.968,47.453],[7.053,47.489],[7.136,47.49],[7.203,47.433],[7.266,47.426],[7.42,47.455],[7.495,47.547],[7.616,47.593],[7.698,47.57],[7.927,47.564],[8.094,47.576],[8.198,47.607],[8.454,47.596],[8.559,47.624],[8.567,47.652],[8.452,47.652],[8.413,47.663],[8.403,47.688],[8.436,47.731],[8.51,47.767],[8.573,47.776],[8.618,47.766],[8.728,47.7],[8.793,47.717],[8.831,47.704],[8.881,47.656],[9.183,47.671]]]}},{"type":"Feature","properties":{"ISO_A2":"CZ","NAME":"Czechia"},"geometry":{"type":"Polygon","coordinates":[[[18.832,49.511],[18.596,49.491],[18.416,49.391],[18.365,49.336],[18.161,49.257],[18.11,49.18],[18.086,49.065],[18.051,49.037],[17.913,48.999],[17.893,48.971],[17.758,48.888],[17.625,48.842],[17.483,48.828],[17.188,48.861],[17.136,48.841],[17.063,48.781],[16.985,48.677],[16.953,48.599],[16.884,48.704],[16.713,48.734],[16.544,48.796],[16.478,48.8],[16.367,48.739],[16.057,48.755],[15.825,48.864],[15.701,48.86],[15.311,48.974],[15.162,48.946],[15.067,48.998],[14.993,49.001],[14.972,48.984],[14.947,48.828],[14.923,48.771],[14.822,48.774],[14.786,48.747],[14.707,48.672],[14.691,48.599],[14.489,48.626],[14.431,48.616],[14.368,48.576],[14.19,48.579],[14.049,48.602],[13.989,48.692],[13.815,48.767],[13.77,48.816],[13.548,48.96],[13.441,48.956],[13.401,48.978],[13.339,49.061],[13.289,49.097],[13.228,49.112],[13.141,49.158],[12.917,49.33],[12.813,49.329],[12.681,49.415],[12.5,49.64],[12.391,49.74],[12.498,49.853],[12.512,49.896],[12.458,49.956],[12.276,50.042],[12.208,50.098],[12.175,50.176],[12.09,50.269],[12.09,50.302],[12.135,50.311],[12.175,50.288],[12.231,50.245],[12.277,50.181],[12.453,50.35],[12.549,50.393],[12.706,50.409],[12.765,50.431],[12.943,50.406],[12.967,50.416],[13.016,50.49],[13.181,50.51],[13.238,50.577],[13.306,50.586],[13.375,50.622],[13.436,50.601],[13.473,50.617],[13.527,50.693],[13.557,50.705],[13.701,50.717],[13.899,50.761],[14.202,50.861],[14.369,50.899],[14.377,50.914],[14.299,50.953],[14.256,51.002],[14.283,51.029],[14.32,51.038],[14.546,50.994],[14.595,50.919],[14.624,50.915],[14.614,50.856],[14.723,50.815],[14.767,50.818],[14.809,50.859],[14.896,50.861],[14.983,50.887],[14.994,51.014],[15.259,50.959],[15.277,50.883],[15.354,50.812],[15.731,50.74],[15.894,50.677],[15.949,50.67],[16.007,50.612],[16.282,50.656],[16.36,50.621],[16.42,50.574],[16.379,50.517],[16.283,50.483],[16.21,50.424],[16.231,50.394],[16.334,50.367],[16.488,50.248],[16.597,50.122],[16.639,50.102],[16.679,50.097],[16.842,50.187],[16.99,50.237],[16.993,50.26],[16.869,50.415],[16.88,50.427],[17.152,50.378],[17.415,50.255],[17.555,50.264],[17.702,50.307],[17.72,50.299],[17.735,50.231],[17.709,50.194],[17.589,50.157],[17.627,50.116],[17.681,50.101],[17.831,49.983],[17.875,49.972],[17.984,49.999],[18.028,50.035],[18.099,49.993],[18.205,49.965],[18.305,49.914],[18.348,49.93],[18.516,49.902],[18.562,49.879],[18.595,49.758],[18.807,49.614],[18.832,49.511]]]}},{"type":"Feature","properties":{"ISO_A2":"DE","NAME":"Germany"},"geometry":{"type":"MultiPolygon","coordinates":[[[[9.183,47.671],[8.881,47.656],[8.831,47.704],[8.793,47.717],[8.728,47.7],[8.618,47.766],[8.573,47.776],[8.51,47.767],[8.436,47.731],[8.403,47.688],[8.413,47.663],[8.552,47.659],[8.571,47.638],[8.43,47.592],[8.198,47.607],[8.094,47.576],[7.927,47.564],[7.698,47.57],[7.565,47.607],[7.529,47.674],[7.539,47.774],[7.593,47.906],[7.608,48.003],[7.584,48.064],[7.617,48.157],[7.706,48.28],[7.765,48.41],[7.795,48.547],[7.838,48.636],[8.14,48.886],[8.135,48.974],[8.001,49.011],[7.611,49.062],[7.525,49.086],[7.451,49.152],[7.2,49.114],[7.117,49.128],[7.037,49.113],[7.001,49.18],[6.891,49.208],[6.85,49.202],[6.776,49.154],[6.735,49.161],[6.575,49.32],[6.534,49.395],[6.458,49.443],[6.344,49.453],[6.378,49.6],[6.407,49.645],[6.485,49.708],[6.487,49.798],[6.325,49.838],[6.256,49.872],[6.138,49.974],[6.11,50.034],[6.121,50.139],[6.175,50.233],[6.364,50.316],[6.341,50.452],[6.295,50.485],[6.203,50.499],[6.179,50.523],[6.168,50.545],[6.236,50.597],[5.994,50.75],[6.048,50.905],[6.007,50.95],[5.895,50.984],[5.858,51.03],[5.868,51.045],[5.939,51.041],[6.13,51.147],[6.137,51.165],[6.082,51.18],[6.076,51.224],[6.166,51.355],[6.199,51.45],[6.193,51.489],[6.091,51.599],[6.089,51.638],[5.949,51.762],[5.949,51.803],[6.167,51.881],[6.356,51.825],[6.425,51.858],[6.518,51.854],[6.742,51.911],[6.802,51.98],[6.716,52.036],[6.725,52.08],[6.977,52.206],[7.02,52.266],[7.035,52.38],[7.002,52.419],[6.968,52.444],[6.833,52.442],[6.749,52.464],[6.703,52.499],[6.692,52.53],[6.719,52.574],[6.711,52.618],[6.748,52.634],[7.013,52.634],[7.033,52.651],[7.051,52.745],[7.117,52.887],[7.179,52.966],[7.197,53.282],[7.152,53.327],[7.053,53.376],[7.107,53.557],[7.206,53.655],[7.285,53.681],[7.629,53.697],[8.009,53.691],[8.167,53.543],[8.108,53.468],[8.201,53.432],[8.245,53.445],[8.302,53.584],[8.334,53.606],[8.451,53.552],[8.493,53.514],[8.495,53.394],[8.538,53.557],[8.506,53.671],[8.528,53.781],[8.619,53.875],[8.898,53.836],[9.206,53.856],[9.322,53.813],[9.585,53.6],[9.673,53.566],[9.784,53.555],[9.631,53.6],[9.312,53.859],[9.216,53.891],[9.07,53.901],[8.978,53.926],[8.92,53.965],[8.904,54.0],[8.907,54.261],[8.852,54.3],[8.78,54.313],[8.736,54.295],[8.645,54.295],[8.626,54.354],[8.648,54.398],[8.831,54.428],[8.952,54.468],[8.957,54.538],[8.881,54.594],[8.682,54.792],[8.67,54.903],[8.903,54.897],[9.186,54.845],[9.255,54.808],[9.342,54.806],[9.616,54.855],[9.74,54.826],[9.746,54.807],[9.892,54.781],[10.022,54.674],[10.029,54.581],[9.869,54.472],[10.143,54.488],[10.212,54.409],[10.36,54.438],[10.732,54.316],[11.013,54.379],[11.064,54.281],[11.009,54.181],[10.811,54.075],[10.855,54.01],[10.918,53.995],[11.104,54.009],[11.4,53.945],[11.461,53.965],[11.701,54.114],[11.796,54.145],[12.111,54.168],[12.169,54.226],[12.296,54.284],[12.575,54.467],[13.029,54.411],[13.147,54.283],[13.448,54.141],[13.724,54.153],[13.822,54.019],[13.866,53.853],[14.025,53.767],[14.259,53.73],[14.299,53.556],[14.415,53.283],[14.411,53.199],[14.369,53.106],[14.293,53.027],[14.194,52.982],[14.139,52.933],[14.129,52.878],[14.254,52.783],[14.514,52.646],[14.619,52.529],[14.57,52.431],[14.555,52.36],[14.574,52.314],[14.616,52.278],[14.68,52.25],[14.705,52.207],[14.692,52.15],[14.705,52.11],[14.753,52.082],[14.675,51.905],[14.602,51.832],[14.624,51.771],[14.725,51.662],[14.739,51.627],[14.711,51.545],[14.725,51.524],[14.906,51.463],[14.936,51.435],[15.017,51.253],[14.964,51.095],[14.917,51.009],[14.767,50.818],[14.723,50.815],[14.614,50.856],[14.624,50.915],[14.595,50.919],[14.546,50.994],[14.32,51.038],[14.283,51.029],[14.256,51.002],[14.299,50.953],[14.377,50.914],[14.369,50.899],[14.202,50.861],[13.899,50.761],[13.701,50.717],[13.557,50.705],[13.527,50.693],[13.473,50.617],[13.436,50.601],[13.375,50.622],[13.306,50.586],[13.238,50.577],[13.181,50.51],[13.016,50.49],[12.967,50.416],[12.943,50.406],[12.765,50.431],[12.706,50.409],[12.549,50.393],[12.453,50.35],[12.277,50.181],[12.231,50.245],[12.175,50.288],[12.135,50.311],[12.09,50.302],[12.09,50.269],[12.175,50.176],[12.208,50.098],[12.276,50.042],[12.458,49.956],[12.512,49.896],[12.498,49.853],[12.391,49.74],[12.5,49.64],[12.681,49.415],[12.813,49.329],[12.917,49.33],[13.141,49.158],[13.228,49.112],[13.289,49.097],[13.339,49.061],[13.401,48.978],[13.441,48.956],[13.548,48.96],[13.77,48.816],[13.815,48.767],[13.785,48.587],[13.724,48.542],[13.675,48.523],[13.487,48.582],[13.46,48.565],[13.409,48.394],[13.375,48.361],[13.323,48.331],[13.082,48.275],[12.897,48.204],[12.814,48.161],[12.76,48.107],[12.76,48.076],[12.954,47.891],[12.954,47.808],[12.898,47.722],[13.034,47.699],[13.054,47.655],[13.048,47.579],[13.014,47.478],[12.968,47.476],[12.809,47.542],[12.783,47.564],[12.796,47.607],[12.771,47.639],[12.686,47.669],[12.483,47.637],[12.363,47.688],[12.209,47.718],[12.197,47.709],[12.204,47.647],[12.186,47.62],[11.717,47.583],[11.393,47.487],[11.374,47.46],[11.298,47.425],[11.212,47.414],[11.191,47.425],[11.042,47.393],[10.981,47.398],[10.894,47.47],[10.873,47.52],[10.742,47.524],[10.659,47.547],[10.439,47.552],[10.404,47.417],[10.369,47.366],[10.313,47.313],[10.183,47.279],[10.2,47.363],[10.066,47.393],[10.074,47.429],[10.06,47.449],[9.972,47.505],[9.749,47.576],[9.651,47.526],[9.524,47.524],[9.183,47.671]]],[[[14.214,53.871],[14.048,53.863],[13.926,53.879],[13.902,53.939],[13.922,53.997],[13.827,54.06],[13.828,54.127],[14.211,53.95],[14.198,53.919],[14.214,53.871]]],[[[13.595,54.338],[13.482,54.337],[13.415,54.25],[13.364,54.246],[13.19,54.326],[13.156,54.397],[13.177,54.544],[13.231,54.583],[13.24,54.638],[13.337,54.697],[13.423,54.699],[13.45,54.65],[13.491,54.615],[13.636,54.577],[13.671,54.535],[13.58,54.464],[13.602,54.425],[13.709,54.383],[13.734,54.315],[13.707,54.281],[13.595,54.338]]],[[[11.071,54.456],[11.012,54.466],[11.043,54.515],[11.085,54.533],[11.234,54.501],[11.283,54.418],[11.129,54.416],[11.071,54.456]]],[[[8.4,54.714],[8.418,54.739],[8.51,54.76],[8.573,54.749],[8.588,54.713],[8.549,54.688],[8.454,54.691],[8.4,54.714]]],[[[8.405,55.059],[8.451,55.055],[8.39,54.986],[8.371,54.929],[8.38,54.9],[8.63,54.892],[8.601,54.865],[8.347,54.848],[8.285,54.767],[8.296,54.908],[8.405,55.059]]]]}},{"type":"Feature","properties":{"ISO_A2":"DK","NAME":"Denmark"},"geometry":{"type":"MultiPolygon","coordinates":[[[[10.341,54.859],[10.2,54.963],[10.505,54.861],[10.417,54.837],[10.341,54.859]]],[[[10.692,54.903],[10.738,54.962],[10.857,55.052],[10.925,55.158],[10.951,55.156],[10.921,55.062],[10.765,54.8],[10.734,54.751],[10.69,54.745],[10.622,54.851],[10.692,54.903]]],[[[9.771,55.06],[9.83,55.058],[9.999,54.986],[10.061,54.886],[9.957,54.872],[9.904,54.897],[9.806,54.906],[9.771,55.06]]],[[[10.819,55.322],[10.785,55.27],[10.808,55.203],[10.785,55.133],[10.624,55.052],[10.443,55.049],[9.989,55.163],[9.967,55.205],[9.93,55.229],[9.859,55.357],[9.861,55.515],[10.286,55.611],[10.354,55.599],[10.424,55.56],[10.505,55.558],[10.623,55.613],[10.645,55.61],[10.819,55.322]]],[[[10.544,55.907],[10.516,55.959],[10.547,55.992],[10.662,55.878],[10.59,55.765],[10.527,55.784],[10.52,55.848],[10.544,55.907]]],[[[9.616,54.855],[9.342,54.806],[9.255,54.808],[9.186,54.845],[8.903,54.897],[8.67,54.903],[8.638,55.046],[8.573,55.134],[8.67,55.156],[8.651,55.329],[8.616,55.418],[8.132,55.6],[8.202,55.982],[8.121,56.14],[8.164,56.607],[8.281,56.617],[8.473,56.565],[8.553,56.56],[8.608,56.515],[8.672,56.496],[8.718,56.544],[8.736,56.627],[8.888,56.735],[9.067,56.794],[9.196,56.702],[9.255,57.012],[9.11,57.044],[8.993,57.016],[8.876,56.887],[8.772,56.725],[8.603,56.71],[8.468,56.665],[8.268,56.754],[8.266,56.815],[8.284,56.852],[8.427,56.984],[8.619,57.111],[8.812,57.11],[8.952,57.151],[9.036,57.155],[9.299,57.147],[9.434,57.174],[9.554,57.232],[9.815,57.478],[9.962,57.581],[10.259,57.617],[10.533,57.735],[10.61,57.737],[10.481,57.649],[10.445,57.562],[10.537,57.449],[10.518,57.379],[10.524,57.243],[10.437,57.172],[10.338,57.021],[10.296,56.999],[10.283,56.621],[10.384,56.555],[10.49,56.521],[10.846,56.522],[10.926,56.443],[10.894,56.359],[10.856,56.296],[10.753,56.242],[10.621,56.202],[10.539,56.2],[10.427,56.276],[10.374,56.252],[10.319,56.213],[10.227,56.005],[10.183,55.865],[10.159,55.854],[10.107,55.874],[10.017,55.876],[9.904,55.843],[10.024,55.761],[9.999,55.736],[9.899,55.708],[9.81,55.651],[9.773,55.608],[9.661,55.557],[9.591,55.493],[9.671,55.266],[9.643,55.205],[9.505,55.116],[9.454,55.04],[9.572,55.041],[9.645,55.023],[9.732,54.968],[9.705,54.928],[9.74,54.826],[9.616,54.855]]],[[[11.74,54.807],[11.759,54.768],[11.766,54.679],[11.68,54.654],[11.586,54.662],[11.457,54.629],[11.036,54.773],[11.042,54.893],[11.059,54.941],[11.258,54.952],[11.361,54.892],[11.538,54.83],[11.658,54.833],[11.74,54.807]]],[[[12.119,54.914],[12.162,54.975],[12.259,55.021],[12.274,55.064],[12.31,55.041],[12.47,55.017],[12.549,54.966],[12.511,54.951],[12.358,54.962],[12.184,54.892],[12.119,54.914]]],[[[14.714,55.238],[14.765,55.297],[15.133,55.145],[15.137,55.087],[15.088,55.022],[15.051,55.005],[14.886,55.033],[14.684,55.102],[14.714,55.238]]],[[[12.507,55.637],[12.321,55.588],[12.243,55.538],[12.215,55.467],[12.275,55.414],[12.385,55.386],[12.413,55.286],[12.322,55.237],[12.09,55.188],[12.066,55.07],[12.073,54.977],[12.05,54.815],[11.862,54.773],[11.741,54.915],[11.74,54.972],[11.654,55.187],[11.476,55.212],[11.286,55.204],[11.171,55.329],[11.19,55.466],[11.128,55.535],[11.121,55.601],[11.009,55.644],[10.979,55.722],[11.05,55.74],[11.224,55.731],[11.322,55.753],[11.464,55.879],[11.475,55.943],[11.628,55.957],[11.696,55.908],[11.682,55.829],[11.691,55.729],[11.82,55.698],[11.885,55.808],[11.922,55.828],[11.935,55.896],[11.913,55.937],[11.866,55.968],[12.219,56.119],[12.323,56.122],[12.526,56.083],[12.579,56.064],[12.608,56.033],[12.525,55.918],[12.569,55.785],[12.571,55.685],[12.507,55.637]]],[[[12.52,55.615],[12.599,55.68],[12.62,55.679],[12.666,55.597],[12.551,55.556],[12.52,55.615]]],[[[11.086,57.33],[11.175,57.323],[11.011,57.229],[10.874,57.262],[10.935,57.309],[11.086,57.33]]]]}},{"type":"Feature","properties":{"ISO_A2":"ES","NAME":"Spain"},"geometry":{"type":"MultiPolygon","coordinates":[[[[1.571,38.659],[1.406,38.671],[1.402,38.711],[1.436,38.768],[1.497,38.712],[1.593,38.701],[1.594,38.672],[1.571,38.659]]],[[[1.257,38.879],[1.223,38.904],[1.256,38.973],[1.3,38.982],[1.303,39.031],[1.349,39.081],[1.564,39.121],[1.613,39.087],[1.624,39.039],[1.495,38.933],[1.445,38.919],[1.409,38.857],[1.257,38.879]]],[[[3.342,39.787],[3.449,39.761],[3.462,39.698],[3.293,39.477],[3.245,39.387],[3.073,39.301],[2.9,39.368],[2.8,39.385],[2.77,39.41],[2.746,39.51],[2.701,39.542],[2.634,39.556],[2.5,39.478],[2.459,39.53],[2.394,39.54],[2.37,39.572],[2.371,39.613],[2.785,39.855],[2.905,39.908],[3.159,39.971],[3.198,39.961],[3.164,39.924],[3.199,39.89],[3.191,39.861],[3.159,39.837],[3.145,39.79],[3.241,39.757],[3.342,39.787]]],[[[-1.753,43.325],[-1.627,43.282],[-1.472,43.268],[-1.411,43.24],[-1.423,43.149],[-1.48,43.071],[-1.429,43.037],[-1.371,43.038],[-1.3,43.101],[-1.285,43.06],[-1.175,43.021],[-0.934,42.95],[-0.763,42.94],[-0.586,42.799],[-0.299,42.825],[-0.041,42.689],[0.201,42.719],[0.255,42.693],[0.632,42.69],[0.652,42.8],[0.67,42.836],[0.697,42.845],[1.01,42.779],[1.208,42.713],[1.293,42.71],[1.349,42.691],[1.428,42.596],[1.415,42.548],[1.428,42.461],[1.449,42.437],[1.534,42.442],[1.706,42.503],[1.928,42.426],[1.987,42.358],[2.033,42.354],[2.2,42.421],[2.652,42.34],[2.67,42.393],[2.702,42.408],[2.891,42.456],[2.97,42.467],[3.211,42.431],[3.24,42.368],[3.288,42.344],[3.307,42.289],[3.166,42.256],[3.15,42.162],[3.225,42.111],[3.238,42.082],[3.248,41.944],[3.005,41.767],[2.311,41.467],[2.146,41.321],[2.083,41.287],[1.567,41.196],[1.033,41.062],[0.715,40.823],[0.796,40.804],[0.891,40.722],[0.859,40.686],[0.721,40.63],[0.596,40.615],[0.364,40.319],[0.158,40.107],[0.043,40.014],[-0.075,39.876],[-0.327,39.52],[-0.329,39.417],[-0.205,39.063],[-0.134,38.969],[-0.034,38.891],[0.155,38.825],[0.202,38.759],[0.136,38.697],[-0.053,38.586],[-0.381,38.436],[-0.521,38.317],[-0.551,38.203],[-0.647,38.152],[-0.683,37.992],[-0.753,37.85],[-0.815,37.77],[-0.823,37.712],[-0.722,37.631],[-0.822,37.581],[-1.328,37.561],[-1.641,37.387],[-1.798,37.233],[-1.939,36.946],[-2.112,36.777],[-2.188,36.745],[-2.306,36.82],[-2.453,36.831],[-2.596,36.806],[-2.671,36.748],[-2.788,36.715],[-2.902,36.743],[-3.149,36.758],[-3.259,36.756],[-3.431,36.708],[-3.579,36.74],[-3.828,36.756],[-4.367,36.718],[-4.435,36.7],[-4.502,36.629],[-4.674,36.506],[-4.935,36.502],[-5.171,36.424],[-5.231,36.374],[-5.33,36.236],[-5.361,36.135],[-5.382,36.134],[-5.407,36.159],[-5.444,36.151],[-5.463,36.074],[-5.625,36.026],[-5.808,36.088],[-5.961,36.182],[-6.041,36.188],[-6.17,36.334],[-6.226,36.426],[-6.266,36.527],[-6.269,36.597],[-6.384,36.637],[-6.412,36.729],[-6.328,36.848],[-6.217,36.914],[-6.321,36.908],[-6.396,36.832],[-6.492,36.955],[-6.885,37.194],[-6.859,37.249],[-6.864,37.279],[-6.929,37.215],[-6.975,37.198],[-7.175,37.209],[-7.406,37.179],[-7.504,37.585],[-7.444,37.728],[-7.379,37.786],[-7.292,37.906],[-7.185,38.006],[-7.023,38.045],[-6.958,38.188],[-7.106,38.181],[-7.343,38.457],[-7.306,38.567],[-7.282,38.715],[-7.125,38.827],[-7.046,38.907],[-7.006,38.985],[-6.998,39.056],[-7.043,39.107],[-7.172,39.135],[-7.306,39.338],[-7.335,39.465],[-7.445,39.536],[-7.536,39.662],[-7.454,39.681],[-7.118,39.682],[-7.037,39.714],[-6.975,39.798],[-6.911,39.937],[-6.896,40.022],[-6.916,40.057],[-7.028,40.143],[-7.033,40.168],[-7.015,40.208],[-6.81,40.343],[-6.852,40.443],[-6.818,40.654],[-6.836,40.777],[-6.858,40.878],[-6.928,41.009],[-6.883,41.062],[-6.776,41.108],[-6.69,41.215],[-6.566,41.304],[-6.403,41.375],[-6.289,41.455],[-6.244,41.516],[-6.213,41.532],[-6.243,41.602],[-6.308,41.642],[-6.392,41.665],[-6.542,41.673],[-6.559,41.704],[-6.558,41.874],[-6.575,41.913],[-6.618,41.942],[-6.704,41.935],[-6.833,41.964],[-6.866,41.945],[-7.03,41.951],[-7.147,41.981],[-7.195,41.955],[-7.21,41.895],[-7.269,41.864],[-7.404,41.834],[-7.513,41.836],[-7.693,41.888],[-7.896,41.871],[-7.921,41.884],[-8.094,41.814],[-8.152,41.812],[-8.174,41.82],[-8.225,41.896],[-8.213,41.927],[-8.13,42.018],[-8.213,42.134],[-8.266,42.137],[-8.59,42.053],[-8.777,41.941],[-8.852,41.927],[-8.878,41.947],[-8.887,42.105],[-8.691,42.274],[-8.816,42.285],[-8.81,42.334],[-8.769,42.358],[-8.73,42.412],[-8.812,42.47],[-8.8,42.6],[-8.812,42.64],[-8.988,42.586],[-9.033,42.594],[-9.035,42.662],[-8.937,42.767],[-8.927,42.799],[-9.042,42.814],[-9.127,42.865],[-9.235,42.977],[-9.236,43.036],[-9.178,43.174],[-9.025,43.239],[-8.874,43.334],[-8.666,43.317],[-8.537,43.337],[-8.422,43.386],[-8.355,43.397],[-8.249,43.439],[-8.252,43.497],[-8.289,43.54],[-8.257,43.58],[-8.005,43.694],[-7.853,43.707],[-7.698,43.765],[-7.595,43.727],[-7.504,43.74],[-7.399,43.696],[-7.262,43.595],[-7.061,43.554],[-6.901,43.586],[-6.617,43.592],[-6.476,43.579],[-6.224,43.604],[-6.08,43.595],[-5.847,43.645],[-5.666,43.582],[-5.316,43.553],[-5.105,43.502],[-4.523,43.416],[-4.313,43.415],[-4.015,43.463],[-3.889,43.499],[-3.774,43.478],[-3.605,43.519],[-3.524,43.511],[-3.418,43.452],[-3.046,43.372],[-2.948,43.44],[-2.875,43.454],[-2.607,43.413],[-2.337,43.328],[-2.197,43.322],[-1.991,43.345],[-1.794,43.407],[-1.793,43.373],[-1.753,43.325]]],[[[3.867,39.959],[3.843,39.976],[3.853,40.063],[4.059,40.075],[4.226,40.032],[4.322,39.898],[4.275,39.83],[3.968,39.946],[3.867,39.959]]]]}},{"type":"Feature","properties":{"ISO_A2":"FR","NAME":"France"},"geometry":{"type":"MultiPolygon","coordinates":[[[[9.454,42.659],[9.526,42.553],[9.551,42.13],[9.401,41.926],[9.395,41.731],[9.374,41.679],[9.331,41.627],[9.253,41.46],[9.186,41.385],[8.895,41.516],[8.808,41.588],[8.879,41.669],[8.887,41.701],[8.718,41.761],[8.719,41.804],[8.759,41.87],[8.74,41.925],[8.622,41.931],[8.615,41.959],[8.703,42.043],[8.701,42.096],[8.642,42.118],[8.588,42.161],[8.566,42.219],[8.608,42.258],[8.675,42.284],[8.626,42.343],[8.566,42.358],[8.64,42.427],[8.713,42.55],[8.815,42.608],[9.044,42.662],[9.138,42.733],[9.198,42.729],[9.288,42.695],[9.313,42.713],[9.338,42.767],[9.323,42.814],[9.331,42.944],[9.363,43.017],[9.415,43.021],[9.463,42.981],[9.48,42.805],[9.454,42.659]]],[[[-1.28,45.897],[-1.369,45.968],[-1.389,46.05],[-1.285,46.003],[-1.178,45.904],[-1.214,45.817],[-1.28,45.897]]],[[[7.495,47.547],[7.42,47.455],[7.343,47.433],[7.203,47.433],[7.136,47.49],[7.053,47.489],[6.968,47.453],[6.9,47.394],[6.921,47.361],[6.984,47.353],[7.001,47.323],[6.667,47.027],[6.456,46.948],[6.439,46.926],[6.41,46.755],[6.161,46.611],[6.068,46.459],[6.06,46.428],[6.123,46.379],[6.096,46.279],[5.97,46.215],[5.971,46.151],[6.007,46.142],[6.087,46.147],[6.199,46.193],[6.273,46.252],[6.224,46.319],[6.235,46.333],[6.322,46.394],[6.429,46.431],[6.578,46.437],[6.776,46.407],[6.767,46.369],[6.784,46.314],[6.817,46.275],[6.772,46.165],[6.954,46.017],[7.021,45.926],[6.941,45.868],[6.804,45.815],[6.791,45.741],[6.806,45.71],[6.881,45.67],[7.014,45.5],[7.153,45.401],[7.117,45.349],[7.078,45.24],[6.981,45.216],[6.842,45.136],[6.692,45.144],[6.628,45.118],[6.635,45.068],[6.691,45.023],[6.738,44.921],[6.801,44.883],[6.94,44.859],[6.993,44.827],[7.031,44.717],[7.008,44.689],[6.96,44.677],[6.843,44.511],[6.894,44.428],[6.875,44.392],[6.9,44.336],[6.967,44.28],[7.319,44.138],[7.371,44.127],[7.637,44.165],[7.677,44.083],[7.651,44.034],[7.482,43.865],[7.493,43.767],[7.439,43.75],[7.414,43.771],[7.395,43.765],[7.378,43.732],[7.181,43.659],[6.865,43.438],[6.717,43.374],[6.657,43.262],[6.57,43.199],[6.494,43.169],[6.305,43.139],[6.116,43.072],[6.031,43.101],[5.809,43.098],[5.672,43.178],[5.407,43.229],[5.32,43.345],[5.12,43.349],[5.073,43.367],[5.06,43.445],[4.912,43.427],[4.844,43.394],[4.787,43.401],[4.789,43.379],[4.712,43.373],[4.224,43.48],[4.163,43.504],[4.113,43.563],[4.053,43.593],[3.911,43.563],[3.785,43.462],[3.259,43.193],[3.052,42.915],[3.043,42.838],[3.091,42.591],[3.211,42.431],[2.97,42.467],[2.891,42.456],[2.702,42.408],[2.67,42.393],[2.652,42.34],[2.2,42.421],[2.033,42.354],[1.987,42.358],[1.928,42.426],[1.706,42.503],[1.74,42.557],[1.71,42.604],[1.501,42.643],[1.428,42.596],[1.349,42.691],[1.293,42.71],[1.208,42.713],[0.764,42.838],[0.67,42.836],[0.632,42.69],[0.255,42.693],[0.201,42.719],[-0.041,42.689],[-0.299,42.825],[-0.586,42.799],[-0.763,42.94],[-0.934,42.95],[-1.175,43.021],[-1.285,43.06],[-1.3,43.101],[-1.371,43.038],[-1.461,43.052],[-1.48,43.071],[-1.423,43.149],[-1.411,43.24],[-1.472,43.268],[-1.627,43.282],[-1.713,43.307],[-1.753,43.325],[-1.793,43.373],[-1.794,43.407],[-1.631,43.438],[-1.485,43.564],[-1.346,44.02],[-1.246,44.56],[-1.171,44.662],[-1.077,44.69],[-1.153,44.764],[-1.245,44.667],[-1.189,45.161],[-1.149,45.343],[-1.081,45.532],[-0.826,45.381],[-0.767,45.314],[-0.691,45.093],[-0.548,45.001],[-0.582,45.051],[-0.641,45.09],[-0.733,45.385],[-0.791,45.468],[-0.881,45.538],[-1.17,45.686],[-1.196,45.714],[-1.21,45.771],[-1.114,45.769],[-1.032,45.741],[-1.104,45.925],[-1.146,46.311],[-1.313,46.327],[-1.392,46.35],[-1.787,46.515],[-1.921,46.685],[-2.059,46.81],[-2.092,46.865],[-2.09,46.921],[-2.019,47.038],[-2.082,47.112],[-2.144,47.126],[-2.197,47.163],[-2.108,47.263],[-2.028,47.274],[-1.743,47.216],[-1.975,47.311],[-2.353,47.279],[-2.503,47.312],[-2.53,47.382],[-2.476,47.413],[-2.428,47.471],[-2.483,47.512],[-2.554,47.527],[-2.77,47.514],[-2.797,47.537],[-2.733,47.602],[-2.787,47.626],[-2.964,47.601],[-3.064,47.621],[-3.159,47.695],[-3.265,47.685],[-3.329,47.713],[-3.444,47.711],[-3.508,47.753],[-3.901,47.838],[-4.071,47.848],[-4.226,47.81],[-4.312,47.823],[-4.375,47.877],[-4.428,47.969],[-4.679,48.04],[-4.629,48.086],[-4.378,48.129],[-4.329,48.17],[-4.435,48.218],[-4.512,48.23],[-4.577,48.29],[-4.531,48.31],[-4.403,48.293],[-4.241,48.304],[-4.302,48.347],[-4.393,48.368],[-4.719,48.363],[-4.763,48.45],[-4.721,48.54],[-4.531,48.62],[-4.059,48.708],[-3.856,48.695],[-3.715,48.71],[-3.546,48.766],[-3.471,48.813],[-3.231,48.841],[-3.003,48.791],[-2.793,48.601],[-2.692,48.537],[-2.446,48.648],[-2.079,48.645],[-2.004,48.582],[-1.973,48.635],[-1.906,48.697],[-1.852,48.669],[-1.825,48.631],[-1.376,48.653],[-1.48,48.698],[-1.565,48.806],[-1.583,49.202],[-1.69,49.313],[-1.813,49.49],[-1.87,49.595],[-1.875,49.631],[-1.856,49.684],[-1.588,49.668],[-1.366,49.707],[-1.259,49.68],[-1.265,49.598],[-1.232,49.495],[-1.139,49.388],[-0.959,49.393],[-0.766,49.36],[-0.521,49.355],[-0.163,49.297],[-0.011,49.33],[0.136,49.402],[0.417,49.448],[0.439,49.473],[0.278,49.463],[0.129,49.508],[0.109,49.558],[0.187,49.703],[0.616,49.863],[0.924,49.91],[1.246,49.998],[1.407,50.089],[1.514,50.205],[1.593,50.252],[1.552,50.294],[1.579,50.739],[1.61,50.819],[1.672,50.885],[1.913,50.991],[2.446,51.067],[2.525,51.097],[2.536,51.05],[2.601,50.955],[2.579,50.912],[2.597,50.876],[2.759,50.751],[2.84,50.712],[3.107,50.779],[3.182,50.732],[3.235,50.663],[3.273,50.532],[3.316,50.507],[3.595,50.477],[3.627,50.457],[3.667,50.325],[3.689,50.306],[3.748,50.344],[3.95,50.336],[4.044,50.321],[4.175,50.246],[4.135,50.144],[4.192,50.094],[4.184,50.053],[4.137,50.0],[4.149,49.972],[4.176,49.96],[4.369,49.945],[4.545,49.96],[4.656,50.002],[4.707,50.097],[4.819,50.153],[4.861,50.136],[4.79,49.96],[4.842,49.915],[4.868,49.788],[5.007,49.778],[5.124,49.721],[5.279,49.678],[5.507,49.511],[5.79,49.538],[5.823,49.505],[6.011,49.445],[6.074,49.455],[6.12,49.485],[6.181,49.499],[6.242,49.494],[6.344,49.453],[6.458,49.443],[6.534,49.395],[6.575,49.32],[6.735,49.161],[6.776,49.154],[6.85,49.202],[6.891,49.208],[7.001,49.18],[7.037,49.113],[7.117,49.128],[7.2,49.114],[7.451,49.152],[7.525,49.086],[7.611,49.062],[8.001,49.011],[8.135,48.974],[8.14,48.886],[7.838,48.636],[7.795,48.547],[7.765,48.41],[7.706,48.28],[7.617,48.157],[7.584,48.064],[7.608,48.003],[7.593,47.906],[7.539,47.774],[7.529,47.674],[7.565,47.607],[7.616,47.593],[7.495,47.547]]]]}},{"type":"Feature","properties":{"ISO_A2":"IT","NAME":"Italy"},"geometry":{"type":"MultiPolygon","coordinates":[[[[11.941,36.78],[11.948,36.843],[12.024,36.821],[12.051,36.757],[12.003,36.746],[11.941,36.78]]],[[[15.234,37.785],[15.165,37.59],[15.1,37.459],[15.106,37.375],[15.117,37.335],[15.23,37.244],[15.174,37.209],[15.289,37.097],[15.295,37.013],[15.142,36.892],[15.104,36.785],[15.113,36.688],[15.002,36.694],[14.89,36.724],[14.776,36.71],[14.502,36.799],[14.367,36.973],[14.259,37.046],[14.143,37.104],[13.905,37.101],[13.801,37.136],[13.587,37.254],[13.361,37.349],[13.17,37.479],[13.04,37.507],[12.924,37.571],[12.699,37.572],[12.64,37.594],[12.527,37.67],[12.436,37.82],[12.548,38.053],[12.664,38.108],[12.734,38.183],[12.851,38.064],[12.903,38.035],[12.955,38.041],[13.049,38.084],[13.057,38.131],[13.16,38.19],[13.291,38.191],[13.352,38.181],[13.383,38.127],[13.491,38.103],[13.682,38.001],[13.789,37.981],[14.05,38.041],[14.288,38.017],[14.506,38.046],[14.637,38.085],[14.737,38.151],[14.79,38.167],[15.119,38.153],[15.176,38.168],[15.224,38.211],[15.28,38.23],[15.341,38.217],[15.499,38.291],[15.568,38.296],[15.635,38.268],[15.577,38.22],[15.476,38.063],[15.234,37.785]]],[[[8.361,39.039],[8.367,39.116],[8.479,39.068],[8.421,38.969],[8.361,39.039]]],[[[9.805,40.5],[9.754,40.4],[9.643,40.268],[9.659,40.159],[9.701,40.092],[9.707,40.017],[9.617,39.354],[9.562,39.166],[9.486,39.14],[9.264,39.217],[9.149,39.197],[9.056,39.239],[9.023,39.043],[8.967,38.964],[8.881,38.913],[8.801,38.91],[8.649,38.927],[8.595,38.964],[8.418,39.206],[8.399,39.482],[8.447,39.563],[8.461,39.648],[8.451,39.722],[8.471,39.748],[8.511,39.722],[8.541,39.732],[8.548,39.839],[8.496,39.897],[8.408,39.917],[8.409,40.038],[8.455,40.078],[8.471,40.131],[8.471,40.293],[8.409,40.352],[8.353,40.501],[8.19,40.652],[8.181,40.771],[8.224,40.913],[8.31,40.858],[8.363,40.846],[8.468,40.834],[8.572,40.85],[8.821,40.95],[8.998,41.11],[9.107,41.143],[9.163,41.185],[9.182,41.242],[9.228,41.257],[9.283,41.202],[9.351,41.196],[9.455,41.15],[9.539,41.054],[9.615,41.017],[9.621,41.005],[9.59,40.992],[9.554,40.932],[9.632,40.882],[9.682,40.818],[9.794,40.556],[9.805,40.5]]],[[[13.854,40.724],[13.871,40.762],[13.962,40.739],[13.961,40.718],[13.894,40.697],[13.854,40.724]]],[[[8.206,40.997],[8.267,41.099],[8.32,41.122],[8.344,41.102],[8.253,40.994],[8.206,40.997]]],[[[7.328,45.912],[7.539,45.978],[7.788,45.922],[7.993,46.016],[8.125,46.161],[8.127,46.188],[8.082,46.256],[8.096,46.271],[8.232,46.341],[8.371,46.445],[8.423,46.446],[8.443,46.403],[8.438,46.283],[8.458,46.246],[8.642,46.111],[8.819,46.077],[8.827,46.061],[8.778,45.996],[8.885,45.919],[8.904,45.862],[8.954,45.83],[9.024,45.846],[9.047,45.876],[8.999,45.983],[9.003,46.015],[9.022,46.051],[9.203,46.219],[9.251,46.287],[9.26,46.475],[9.304,46.496],[9.428,46.482],[9.481,46.349],[9.529,46.306],[9.639,46.296],[9.884,46.368],[9.939,46.362],[10.041,46.238],[10.081,46.228],[10.145,46.254],[10.11,46.363],[10.082,46.421],[10.046,46.448],[10.038,46.483],[10.087,46.6],[10.196,46.621],[10.272,46.565],[10.431,46.55],[10.438,46.619],[10.398,46.665],[10.406,46.735],[10.453,46.865],[10.689,46.846],[10.76,46.793],[10.829,46.775],[10.993,46.777],[11.025,46.797],[11.134,46.936],[11.244,46.976],[11.528,46.997],[11.776,46.986],[12.169,47.082],[12.201,47.061],[12.131,46.985],[12.154,46.935],[12.388,46.703],[12.479,46.673],[13.169,46.573],[13.49,46.556],[13.7,46.52],[13.68,46.463],[13.563,46.415],[13.4,46.318],[13.378,46.262],[13.421,46.212],[13.492,46.217],[13.633,46.177],[13.617,46.133],[13.486,46.04],[13.488,45.987],[13.509,45.974],[13.601,45.98],[13.614,45.962],[13.57,45.834],[13.583,45.812],[13.722,45.761],[13.831,45.68],[13.875,45.615],[13.845,45.593],[13.72,45.588],[13.783,45.627],[13.628,45.771],[13.558,45.771],[13.465,45.71],[13.206,45.771],[13.157,45.747],[13.12,45.698],[13.03,45.638],[12.903,45.611],[12.761,45.544],[12.498,45.462],[12.432,45.468],[12.536,45.545],[12.492,45.546],[12.274,45.446],[12.226,45.242],[12.286,45.208],[12.392,45.04],[12.523,44.968],[12.464,44.845],[12.384,44.798],[12.319,44.833],[12.279,44.832],[12.248,44.723],[12.305,44.429],[12.396,44.224],[12.487,44.134],[12.691,43.995],[12.907,43.921],[13.295,43.686],[13.508,43.612],[13.564,43.571],[13.693,43.39],[13.805,43.18],[13.925,42.852],[14.01,42.69],[14.183,42.506],[14.541,42.244],[14.866,42.053],[15.169,41.934],[15.405,41.913],[15.964,41.939],[16.165,41.896],[16.189,41.814],[16.151,41.758],[15.914,41.621],[15.9,41.512],[16.013,41.435],[16.552,41.232],[17.103,41.062],[17.275,40.975],[17.474,40.841],[17.955,40.655],[18.036,40.565],[18.328,40.371],[18.461,40.221],[18.486,40.105],[18.393,39.904],[18.344,39.821],[18.219,39.853],[18.078,39.937],[17.865,40.28],[17.476,40.315],[17.396,40.34],[17.258,40.399],[17.215,40.486],[17.18,40.503],[17.031,40.513],[16.928,40.458],[16.807,40.326],[16.67,40.137],[16.53,39.86],[16.522,39.748],[16.598,39.639],[16.824,39.578],[16.999,39.482],[17.115,39.381],[17.123,39.137],[17.175,38.998],[17.099,38.919],[16.951,38.94],[16.755,38.89],[16.617,38.8],[16.559,38.715],[16.574,38.494],[16.546,38.409],[16.282,38.25],[16.144,38.086],[16.057,37.942],[15.725,37.939],[15.646,38.034],[15.643,38.175],[15.7,38.262],[15.822,38.303],[15.905,38.483],[15.879,38.614],[15.927,38.672],[15.972,38.713],[16.197,38.759],[16.21,38.941],[16.107,39.024],[16.024,39.354],[15.854,39.627],[15.764,39.87],[15.693,39.99],[15.585,40.053],[15.391,40.052],[15.295,40.07],[14.951,40.239],[14.927,40.265],[14.929,40.31],[14.986,40.377],[14.948,40.469],[14.907,40.556],[14.84,40.63],[14.766,40.668],[14.557,40.626],[14.459,40.633],[14.383,40.6],[14.34,40.599],[14.461,40.729],[14.428,40.759],[14.309,40.813],[14.102,40.827],[14.076,40.794],[14.044,40.812],[14.048,40.87],[13.86,41.13],[13.733,41.236],[13.67,41.254],[13.555,41.232],[13.362,41.279],[13.247,41.289],[13.089,41.244],[13.041,41.266],[13.024,41.301],[12.849,41.409],[12.631,41.47],[12.206,41.813],[12.075,41.941],[11.807,42.082],[11.637,42.288],[11.498,42.363],[11.296,42.423],[11.141,42.39],[11.103,42.417],[11.185,42.457],[11.168,42.535],[10.938,42.739],[10.803,42.804],[10.708,42.936],[10.645,42.957],[10.515,42.968],[10.532,43.14],[10.521,43.204],[10.448,43.371],[10.321,43.513],[10.246,43.852],[10.188,43.948],[10.048,44.02],[9.731,44.101],[9.289,44.319],[9.196,44.323],[8.93,44.408],[8.766,44.422],[8.552,44.346],[8.292,44.137],[8.082,43.919],[8.005,43.877],[7.733,43.803],[7.493,43.767],[7.482,43.865],[7.651,44.034],[7.677,44.083],[7.637,44.165],[7.371,44.127],[7.319,44.138],[6.967,44.28],[6.9,44.336],[6.875,44.392],[6.894,44.428],[6.843,44.511],[6.96,44.677],[7.008,44.689],[7.031,44.717],[6.993,44.827],[6.94,44.859],[6.801,44.883],[6.738,44.921],[6.691,45.023],[6.635,45.068],[6.628,45.118],[6.692,45.144],[6.842,45.136],[6.981,45.216],[7.078,45.24],[7.117,45.349],[7.153,45.401],[7.014,45.5],[6.881,45.67],[6.806,45.71],[6.789,45.78],[6.804,45.815],[6.941,45.868],[7.021,45.926],[7.129,45.88],[7.328,45.912]],[[12.431,41.905],[12.439,41.898],[12.438,41.906],[12.431,41.905]],[[12.441,43.982],[12.397,43.935],[12.426,43.894],[12.485,43.901],[12.515,43.953],[12.504,43.99],[12.441,43.982]]],[[[10.41,42.771],[10.419,42.713],[10.336,42.761],[10.209,42.737],[10.131,42.742],[10.11,42.785],[10.128,42.81],[10.359,42.822],[10.395,42.858],[10.432,42.797],[10.41,42.771]]]]}},{"type":"Feature","properties":{"ISO_A2":"LU","NAME":"Luxembourg"},"geometry":{"type":"Polygon","coordinates":[[[6.117,50.121],[6.11,50.034],[6.138,49.974],[6.205,49.915],[6.325,49.838],[6.487,49.798],[6.485,49.708],[6.407,49.645],[6.378,49.6],[6.344,49.453],[6.242,49.494],[6.181,49.499],[6.12,49.485],[6.074,49.455],[6.011,49.445],[5.823,49.505],[5.79,49.538],[5.838,49.578],[5.88,49.645],[5.788,49.759],[5.725,49.808],[5.744,49.92],[5.788,49.961],[5.867,50.083],[5.976,50.167],[6.089,50.155],[6.117,50.121]]]}},{"type":"Feature","properties":{"ISO_A2":"NL","NAME":"Netherlands"},"geometry":{"type":"MultiPolygon","coordinates":[[[[4.04,51.247],[3.902,51.208],[3.831,51.213],[3.756,51.255],[3.58,51.286],[3.472,51.242],[3.433,51.246],[3.38,51.291],[3.35,51.378],[3.589,51.399],[3.717,51.369],[3.883,51.354],[4.011,51.396],[4.112,51.361],[4.226,51.386],[4.173,51.307],[4.04,51.247]]],[[[4.075,51.649],[3.951,51.627],[3.819,51.694],[3.732,51.678],[3.699,51.71],[3.699,51.73],[3.789,51.746],[3.949,51.739],[4.047,51.685],[4.075,51.649]]],[[[5.747,50.76],[5.694,50.775],[5.639,50.844],[5.648,50.867],[5.75,50.95],[5.75,50.989],[5.818,51.086],[5.827,51.126],[5.752,51.169],[5.609,51.198],[5.477,51.285],[5.311,51.26],[5.214,51.279],[5.1,51.346],[5.059,51.453],[5.031,51.469],[4.944,51.408],[4.848,51.403],[4.821,51.412],[4.811,51.453],[4.756,51.491],[4.634,51.422],[4.589,51.422],[4.503,51.475],[4.385,51.428],[4.404,51.367],[4.374,51.356],[4.304,51.362],[4.226,51.386],[4.139,51.402],[4.007,51.443],[3.822,51.409],[3.694,51.45],[3.587,51.454],[3.449,51.541],[3.5,51.577],[3.549,51.589],[3.744,51.596],[3.886,51.574],[4.141,51.456],[4.274,51.472],[4.239,51.504],[4.08,51.551],[4.005,51.596],[4.183,51.61],[4.135,51.673],[3.947,51.811],[4.085,51.994],[4.209,52.059],[4.376,52.197],[4.483,52.309],[4.562,52.443],[4.678,52.81],[4.769,52.941],[4.888,52.908],[5.061,52.961],[5.358,53.096],[5.446,53.214],[5.532,53.269],[5.874,53.375],[6.062,53.407],[6.816,53.441],[6.968,53.327],[7.197,53.282],[7.19,53.0],[7.117,52.887],[7.051,52.745],[7.033,52.651],[7.013,52.634],[6.748,52.634],[6.711,52.618],[6.719,52.574],[6.692,52.53],[6.703,52.499],[6.749,52.464],[6.833,52.442],[6.968,52.444],[7.002,52.419],[7.035,52.38],[7.02,52.266],[6.977,52.206],[6.725,52.08],[6.716,52.036],[6.802,51.98],[6.742,51.911],[6.518,51.854],[6.425,51.858],[6.356,51.825],[6.167,51.881],[5.949,51.803],[5.949,51.762],[6.089,51.638],[6.091,51.599],[6.193,51.489],[6.193,51.411],[6.076,51.224],[6.082,51.18],[6.137,51.165],[6.13,51.147],[5.939,51.041],[5.868,51.045],[5.858,51.03],[5.895,50.984],[6.007,50.95],[6.048,50.905],[5.994,50.75],[5.747,50.76]]],[[[4.709,53.036],[4.74,53.091],[4.886,53.183],[4.886,53.071],[4.787,53.0],[4.709,53.036]]],[[[5.027,53.31],[5.109,53.308],[4.924,53.235],[4.908,53.246],[5.027,53.31]]],[[[5.415,53.431],[5.583,53.438],[5.326,53.386],[5.233,53.378],[5.19,53.392],[5.415,53.431]]],[[[5.654,53.467],[5.876,53.475],[5.929,53.459],[5.732,53.443],[5.654,53.467]]],[[[6.291,53.515],[6.333,53.511],[6.193,53.477],[6.159,53.484],[6.291,53.515]]],[[[6.801,53.625],[6.735,53.583],[6.642,53.579],[6.669,53.606],[6.801,53.625]]]]}},{"type":"Feature","properties":{"ISO_A2":"PL","NAME":"Poland"},"geometry":{"type":"Polygon","coordinates":[[[23.54,51.619],[23.659,51.449],[23.68,51.395],[23.658,51.352],[23.664,51.31],[23.863,51.126],[23.938,50.993],[23.986,50.94],[24.096,50.873],[24.106,50.845],[24.062,50.82],[23.997,50.809],[23.978,50.786],[24.046,50.723],[24.095,50.617],[24.09,50.53],[24.053,50.508],[23.973,50.41],[23.712,50.377],[23.036,49.899],[22.706,49.606],[22.649,49.539],[22.732,49.295],[22.706,49.171],[22.847,49.081],[22.84,49.039],[22.81,49.021],[22.58,49.077],[22.473,49.081],[22.02,49.21],[21.968,49.299],[21.89,49.343],[21.64,49.412],[21.35,49.429],[21.079,49.418],[21.001,49.34],[20.947,49.317],[20.868,49.315],[20.8,49.329],[20.729,49.37],[20.616,49.392],[20.363,49.385],[20.164,49.316],[20.108,49.271],[20.058,49.181],[19.916,49.221],[19.802,49.192],[19.757,49.204],[19.788,49.27],[19.774,49.372],[19.63,49.407],[19.48,49.576],[19.442,49.598],[19.25,49.511],[19.149,49.4],[18.968,49.396],[18.938,49.498],[18.832,49.511],[18.807,49.614],[18.595,49.758],[18.562,49.879],[18.516,49.902],[18.348,49.93],[18.305,49.914],[18.205,49.965],[18.099,49.993],[18.028,50.035],[17.984,49.999],[17.875,49.972],[17.831,49.983],[17.681,50.101],[17.627,50.116],[17.589,50.157],[17.709,50.194],[17.735,50.231],[17.72,50.299],[17.702,50.307],[17.555,50.264],[17.415,50.255],[17.152,50.378],[16.88,50.427],[16.869,50.415],[16.993,50.26],[16.99,50.237],[16.842,50.187],[16.679,50.097],[16.639,50.102],[16.597,50.122],[16.488,50.248],[16.334,50.367],[16.231,50.394],[16.21,50.424],[16.283,50.483],[16.357,50.5],[16.42,50.574],[16.36,50.621],[16.282,50.656],[16.007,50.612],[15.949,50.67],[15.894,50.677],[15.731,50.74],[15.354,50.812],[15.277,50.883],[15.259,50.959],[14.994,51.014],[14.983,50.887],[14.896,50.861],[14.809,50.859],[14.964,51.095],[15.017,51.253],[14.936,51.435],[14.906,51.463],[14.725,51.524],[14.711,51.545],[14.739,51.627],[14.725,51.662],[14.624,51.771],[14.602,51.832],[14.675,51.905],[14.753,52.082],[14.705,52.11],[14.692,52.15],[14.705,52.207],[14.68,52.25],[14.616,52.278],[14.574,52.314],[14.555,52.36],[14.57,52.431],[14.619,52.529],[14.514,52.646],[14.254,52.783],[14.129,52.878],[14.139,52.933],[14.194,52.982],[14.293,53.027],[14.369,53.106],[14.411,53.199],[14.415,53.283],[14.299,53.556],[14.259,53.73],[14.583,53.639],[14.552,53.707],[14.565,53.754],[14.558,53.823],[14.214,53.871],[14.198,53.919],[14.211,53.95],[14.249,53.932],[14.384,53.925],[14.716,54.018],[15.288,54.14],[15.9,54.254],[16.186,54.29],[16.376,54.437],[16.56,54.554],[16.885,54.596],[17.007,54.652],[17.262,54.73],[17.843,54.817],[18.086,54.836],[18.323,54.838],[18.759,54.685],[18.8,54.633],[18.678,54.665],[18.502,54.742],[18.436,54.745],[18.587,54.513],[18.67,54.431],[18.836,54.37],[18.976,54.349],[19.407,54.386],[19.604,54.459],[20.208,54.421],[22.168,54.36],[22.732,54.35],[22.824,54.396],[22.894,54.391],[23.016,54.348],[23.042,54.304],[23.17,54.281],[23.282,54.24],[23.454,54.143],[23.481,54.079],[23.478,53.959],[23.599,53.599],[23.789,53.271],[23.887,53.028],[23.916,52.819],[23.901,52.704],[23.845,52.664],[23.48,52.552],[23.411,52.516],[23.204,52.338],[23.175,52.287],[23.197,52.257],[23.458,52.17],[23.598,52.103],[23.652,52.04],[23.651,51.973],[23.607,51.88],[23.626,51.809],[23.545,51.71],[23.54,51.619]]]}}]}